GLOBALSTAR M069         
1 31573U 07020C   26195.33372465 -.00000105  00000+0 -11628-3 0  9992
2 31573  52.0010 175.2903 0001661 208.1283 298.4300 12.23472196882128
GLOBALSTAR M072         
1 31574U 07020D   26195.46795810 -.00000069  00000+0  20008-3 0  9990
2 31574  51.9947  27.6166 0001652  34.0350 336.9866 11.91658766878233
GLOBALSTAR M066         
1 32265U 07048C   26195.61994652 -.00000062  00000+0  27835-3 0  9998
2 32265  51.9609 339.1618 0005620 100.4373 341.3279 12.30389352863600
GLOBALSTAR M079         
1 37188U 10054A   26195.28211806 -.00000102  00000+0  83571-5 0  9990
2 37188  52.0052  26.1890 0001116  75.9673 280.2794 12.62266417725963
GLOBALSTAR M074         
1 37189U 10054B   26195.55423956 -.00000103  00000+0  66954-5 0  9999
2 37189  52.0031  24.6217 0000869  92.4883 300.9087 12.62262009726619
GLOBALSTAR M076         
1 37190U 10054C   26195.49801308 -.00000084  00000+0  11010-3 0  9994
2 37190  52.0043  24.9986 0001089  91.0275 286.6496 12.62262383726322
GLOBALSTAR M077         
1 37191U 10054D   26195.54445083 -.00000096  00000+0 -33325-3 0  9992
2 37191  51.9953 109.8583 0002285 224.4199 306.7040 11.67547542724338
GLOBALSTAR M075         
1 37192U 10054E   26195.06456965 -.00000091  00000+0  68520-4 0  9991
2 37192  51.9952  68.3569 0000737  63.5122  84.0712 12.62267829725335
GLOBALSTAR M073         
1 37193U 10054F   26195.60456111 -.00000105  00000+0 -65419-5 0  9997
2 37193  52.0080 340.8348 0001068  96.0877 344.8315 12.62266896727396
GLOBALSTAR M083         
1 37739U 11033A   26195.52341936 -.00000075  00000+0  15963-3 0  9992
2 37739  51.9869 289.2745 0000783 106.0658 267.2317 12.62264144696405
GLOBALSTAR M088         
1 37740U 11033B   26195.19537716 -.00000102  00000+0  11801-4 0  9999
2 37740  52.0185 196.7647 0000061 141.9135 298.6738 12.62269458691908
GLOBALSTAR M091         
1 37741U 11033C   26195.30615874 -.00000121  00000+0 -97057-4 0  9994
2 37741  51.9979 159.3526 0000404  21.5274 143.3320 12.62264242692705
GLOBALSTAR M085         
1 37742U 11033D   26195.53223795 -.00000109  00000+0 -29097-4 0  9992
2 37742  52.0122 109.9805 0000772  40.2054 132.5085 12.62264305693249
GLOBALSTAR M081         
1 37743U 11033E   26195.47930679 -.00000118  00000+0 -77412-4 0  9996
2 37743  51.9951 112.5466 0000653  53.2584 118.6518 12.62265264693387
GLOBALSTAR M089         
1 37744U 11033F   26195.36027604 -.00000094  00000+0  56040-4 0  9996
2 37744  51.9934  67.0626 0000689  88.3676  83.4800 12.62267578694217
GLOBALSTAR M084         
1 38040U 11080A   26195.57626521 -.00000084  00000+0  11270-3 0  9998
2 38040  52.0022 293.9023 0000849 127.8707 245.7709 12.62263488672224
GLOBALSTAR M080         
1 38041U 11080B   26195.54766304 -.00000080  00000+0  13249-3 0  9994
2 38041  52.0069 295.7171 0000308  83.6856 289.7459 12.62257441672349
GLOBALSTAR M082         
1 38042U 11080C   26195.40460559 -.00000070  00000+0  18993-3 0  9993
2 38042  52.0061 251.6564 0000187  93.2988 279.6627 12.62264170673036
GLOBALSTAR M092         
1 38043U 11080D   26195.63103193 -.00000093  00000+0  60326-4 0  9990
2 38043  52.0105 341.3641 0000791 102.7563 338.9752 12.62267772671515
GLOBALSTAR M090         
1 38044U 11080E   26195.54367924 -.00000046  00000+0  32213-3 0  9996
2 38044  52.0106 245.1978 0000434  91.6934  72.3141 12.62269509673167
GLOBALSTAR M086         
1 38045U 11080F   26195.56479733 -.00000081  00000+0  12783-3 0  9990
2 38045  51.9879 245.0174 0001522 110.8409  52.8382 12.62287747673119
GLOBALSTAR M097         
1 39072U 13005A   26195.32302369 -.00000125  00000+0 -11572-3 0  9999
2 39072  52.0026 160.7311 0000413  38.7360 321.3537 12.62271417620333
GLOBALSTAR M093         
1 39073U 13005B   26195.29625367 -.00000118  00000+0 -80175-4 0  9990
2 39073  52.0088 154.1697 0000635  43.3275 316.7642 12.62266341620288
GLOBALSTAR M094         
1 39074U 13005C   26195.37529170 -.00000111  00000+0 -39371-4 0  9990
2 39074  51.9969  68.0195 0000970  61.7127 298.3838 12.62264103621909
GLOBALSTAR M096         
1 39075U 13005D   26195.46800344 -.00000110  00000+0 -32525-4 0  9999
2 39075  52.0069 116.5597 0000729  40.4781 319.6140 12.62265708620836
GLOBALSTAR M078         
1 39076U 13005E   26195.44112812 -.00000106  00000+0 -11801-4 0  9993
2 39076  51.9843 200.6145 0000813 336.0789  24.0040 12.62260142619454
GLOBALSTAR M095         
1 39077U 13005F   26195.38862566 -.00000105  00000+0 -63864-5 0  9991
2 39077  52.0054 198.4168 0000436  10.9077 349.1799 12.62264142619309
GLOBALSTAR M087         
1 52888U 22064A   26195.56010900 -.00000104  00000+0 -16271-5 0  9997
2 52888  52.0016 339.1175 0000914  84.9356 275.1615 12.62269311194593
