OBJECT_NAME,OBJECT_ID,EPOCH,MEAN_MOTION,ECCENTRICITY,INCLINATION,RA_OF_ASC_NODE,ARG_OF_PERICENTER,MEAN_ANOMALY,EPHEMERIS_TYPE,CLASSIFICATION_TYPE,NORAD_CAT_ID,ELEMENT_SET_NO,REV_AT_EPOCH,BSTAR,MEAN_MOTION_DOT,MEAN_MOTION_DDOT
GLOBALSTAR M069,2007-020C,2026-07-14T08:00:33.809760,12.23472196,.00016613,52.0010,175.2903,208.1283,298.4300,0,U,31573,999,88212,-.11628435E-3,-.105E-5,0
GLOBALSTAR M072,2007-020D,2026-07-14T11:13:51.579840,11.91658766,.00016527,51.9947,27.6166,34.0350,336.9866,0,U,31574,999,87823,.20008204E-3,-.69E-6,0
GLOBALSTAR M066,2007-048C,2026-07-14T14:52:43.379328,12.30389352,.00056204,51.9609,339.1618,100.4373,341.3279,0,U,32265,999,86360,.27834536E-3,-.62E-6,0
GLOBALSTAR M079,2010-054A,2026-07-14T06:46:15.000384,12.62266417,.00011169,52.0052,26.1890,75.9673,280.2794,0,U,37188,999,72596,.8357138E-5,-.102E-5,0
GLOBALSTAR M074,2010-054B,2026-07-14T13:18:06.297984,12.62262009,.00008698,52.0031,24.6217,92.4883,300.9087,0,U,37189,999,72661,.6695392E-5,-.103E-5,0
GLOBALSTAR M076,2010-054C,2026-07-14T11:57:08.330112,12.62262383,.00010897,52.0043,24.9986,91.0275,286.6496,0,U,37190,999,72632,.11010348E-3,-.84E-6,0
GLOBALSTAR M077,2010-054D,2026-07-14T13:04:00.551712,11.67547542,.00022854,51.9953,109.8583,224.4199,306.7040,0,U,37191,999,72433,-.33325042E-3,-.96E-6,0
GLOBALSTAR M075,2010-054E,2026-07-14T01:32:58.817760,12.62267829,.00007373,51.9952,68.3569,63.5122,84.0712,0,U,37192,999,72533,.68520348E-4,-.91E-6,0
GLOBALSTAR M073,2010-054F,2026-07-14T14:30:34.079904,12.62266896,.0001068,52.0080,340.8348,96.0877,344.8315,0,U,37193,999,72739,-.6541865E-5,-.105E-5,0
GLOBALSTAR M083,2011-033A,2026-07-14T12:33:43.432704,12.62264144,.00007835,51.9869,289.2745,106.0658,267.2317,0,U,37739,999,69640,.15962991E-3,-.75E-6,0
GLOBALSTAR M088,2011-033B,2026-07-14T04:41:20.586624,12.62269458,.0000061,52.0185,196.7647,141.9135,298.6738,0,U,37740,999,69190,.11801307E-4,-.102E-5,0
GLOBALSTAR M091,2011-033C,2026-07-14T07:20:52.115136,12.62264242,.00004048,51.9979,159.3526,21.5274,143.3320,0,U,37741,999,69270,-.97057082E-4,-.121E-5,0
GLOBALSTAR M085,2011-033D,2026-07-14T12:46:25.358880,12.62264305,.0000772,52.0122,109.9805,40.2054,132.5085,0,U,37742,999,69324,-.29097325E-4,-.109E-5,0
GLOBALSTAR M081,2011-033E,2026-07-14T11:30:12.106656,12.62265264,.00006536,51.9951,112.5466,53.2584,118.6518,0,U,37743,999,69338,-.77411804E-4,-.118E-5,0
GLOBALSTAR M089,2011-033F,2026-07-14T08:38:47.849856,12.62267578,.00006897,51.9934,67.0626,88.3676,83.4800,0,U,37744,999,69421,.56039539E-4,-.94E-6,0
GLOBALSTAR M084,2011-080A,2026-07-14T13:49:49.314144,12.62263488,.00008494,52.0022,293.9023,127.8707,245.7709,0,U,38040,999,67222,.11270074E-3,-.84E-6,0
GLOBALSTAR M080,2011-080B,2026-07-14T13:08:38.086656,12.62257441,.00003085,52.0069,295.7171,83.6856,289.7459,0,U,38041,999,67234,.13249163E-3,-.8E-6,0
GLOBALSTAR M082,2011-080C,2026-07-14T09:42:37.922976,12.62264170,.00001878,52.0061,251.6564,93.2988,279.6627,0,U,38042,999,67303,.18992543E-3,-.7E-6,0
GLOBALSTAR M092,2011-080D,2026-07-14T15:08:41.158752,12.62267772,.00007917,52.0105,341.3641,102.7563,338.9752,0,U,38043,999,67151,.60325868E-4,-.93E-6,0
GLOBALSTAR M090,2011-080E,2026-07-14T13:02:53.886336,12.62269509,.00004346,52.0106,245.1978,91.6934,72.3141,0,U,38044,999,67316,.32213157E-3,-.46E-6,0
GLOBALSTAR M086,2011-080F,2026-07-14T13:33:18.489312,12.62287747,.00015229,51.9879,245.0174,110.8409,52.8382,0,U,38045,999,67311,.12783046E-3,-.81E-6,0
GLOBALSTAR M097,2013-005A,2026-07-14T07:45:09.246816,12.62271417,.00004133,52.0026,160.7311,38.7360,321.3537,0,U,39072,999,62033,-.11572169E-3,-.125E-5,0
GLOBALSTAR M093,2013-005B,2026-07-14T07:06:36.317088,12.62266341,.00006359,52.0088,154.1697,43.3275,316.7642,0,U,39073,999,62028,-.80175076E-4,-.118E-5,0
GLOBALSTAR M094,2013-005C,2026-07-14T09:00:25.202880,12.62264103,.00009706,51.9969,68.0195,61.7127,298.3838,0,U,39074,999,62190,-.39370537E-4,-.111E-5,0
GLOBALSTAR M096,2013-005D,2026-07-14T11:13:55.497216,12.62265708,.0000729,52.0069,116.5597,40.4781,319.6140,0,U,39075,999,62083,-.32524874E-4,-.11E-5,0
GLOBALSTAR M078,2013-005E,2026-07-14T10:35:13.469568,12.62260142,.00008136,51.9843,200.6145,336.0789,24.0040,0,U,39076,999,61945,-.11801126E-4,-.106E-5,0
GLOBALSTAR M095,2013-005F,2026-07-14T09:19:37.257024,12.62264142,.00004369,52.0054,198.4168,10.9077,349.1799,0,U,39077,999,61930,-.6386409E-5,-.105E-5,0
GLOBALSTAR M087,2022-064A,2026-07-14T13:26:33.417600,12.62269311,.0000914,52.0016,339.1175,84.9356,275.1615,0,U,52888,999,19459,-.1627072E-5,-.104E-5,0
